INTELSAT 14 (IS-14)     
1 36097U 09064A   17344.90323253 -.00000282  00000-0  00000+0 0  9992
2 36097   0.0228 343.5003 0002668 290.6002  85.8690  1.00269282 29522
